{"type": "FeatureCollection", "features": [ {"type": "Feature", "properties": {"norad_id": 30609, "name": "FENGYUN 1C DEB", "group": "fengyun-1c-debris", "lat": -13.681615563455738, "lon": -102.93589667000653, "alt_km": 861.3495823924677, "timestamp": "2025-12-03T22:42:32.912557+00:00", "meta": {"OBJECT_NAME": "FENGYUN 1C DEB", "OBJECT_ID": "1999-025AMQ", "EPOCH": "2025-12-02T17:50:39.565536", "MEAN_MOTION": 14.11078979, "ECCENTRICITY": 0.01184797, "INCLINATION": 98.5668, "RA_OF_ASC_NODE": 253.8136, "ARG_OF_PERICENTER": 81.1865, "MEAN_ANOMALY": 280.2702, "EPHEMERIS_TYPE": 0, "CLASSIFICATION_TYPE": "U", "NORAD_CAT_ID": 30609, "ELEMENT_SET_NO": 999, "REV_AT_EPOCH": 95587, "BSTAR": 0.0026140659, "MEAN_MOTION_DOT": 4.986e-05, "MEAN_MOTION_DDOT": 0}, "tle": {"line1": "1 30609U 99025AMQ 25336.74351349  .00004986  00000+0  26141-2 0  9990", "line2": "2 30609  98.5668 253.8136 0118479  81.1865 280.2702 14.11078979955871"}}, "geometry": {"type": "Point", "coordinates": [-102.93589667000653, -13.681615563455738]}}, {"type": "Feature", "properties": {"norad_id": 30612, "name": "FENGYUN 1C DEB", "group": "fengyun-1c-debris", "lat": 45.17858663936892, "lon": 154.4587080496872, "alt_km": 491.7462877288908, "timestamp": "2025-12-03T22:42:32.912566+00:00", "meta": {"OBJECT_NAME": "FENGYUN 1C DEB", "OBJECT_ID": "1999-025AMT", "EPOCH": "2025-12-03T11:41:15.566208", "MEAN_MOTION": 15.26937126, "ECCENTRICITY": 0.0035475, "INCLINATION": 99.0823, "RA_OF_ASC_NODE": 324.6375, "ARG_OF_PERICENTER": 18.5185, "MEAN_ANOMALY": 112.2083, "EPHEMERIS_TYPE": 0, "CLASSIFICATION_TYPE": "U", "NORAD_CAT_ID": 30612, "ELEMENT_SET_NO": 999, "REV_AT_EPOCH": 116, "BSTAR": 0.0047834, "MEAN_MOTION_DOT": 0.00130859, "MEAN_MOTION_DDOT": 0}, "tle": {"line1": "1 30612U 99025AMT 25337.48698572  .00130859  00000+0  47834-2 0  9999", "line2": "2 30612  99.0823 324.6375 0035475  18.5185 112.2083 15.26937126  1164"}}, "geometry": {"type": "Point", "coordinates": [154.4587080496872, 45.17858663936892]}}, {"type": "Feature", "properties": {"norad_id": 30613, "name": "FENGYUN 1C DEB", "group": "fengyun-1c-debris", "lat": -77.62156647883725, "lon": 138.60585863086646, "alt_km": 522.4020902596585, "timestamp": "2025-12-03T22:42:32.912575+00:00", "meta": {"OBJECT_NAME": "FENGYUN 1C DEB", "OBJECT_ID": "1999-025AMU", "EPOCH": "2025-12-03T07:12:46.203264", "MEAN_MOTION": 15.14579768, "ECCENTRICITY": 0.0072931, "INCLINATION": 98.3074, "RA_OF_ASC_NODE": 96.1593, "ARG_OF_PERICENTER": 198.6764, "MEAN_ANOMALY": 161.1788, "EPHEMERIS_TYPE": 0, "CLASSIFICATION_TYPE": "U", "NORAD_CAT_ID": 30613, "ELEMENT_SET_NO": 999, "REV_AT_EPOCH": 99253, "BSTAR": 0.005787, "MEAN_MOTION_DOT": 0.00115649, "MEAN_MOTION_DDOT": 0}, "tle": {"line1": "1 30613U 99025AMU 25337.30053476  .00115649  00000+0  57870-2 0  9990", "line2": "2 30613  98.3074  96.1593 0072931 198.6764 161.1788 15.14579768992535"}}, "geometry": {"type": "Point", "coordinates": [138.60585863086646, -77.62156647883725]}}, {"type": "Feature", "properties": {"norad_id": 30616, "name": "FENGYUN 1C DEB", "group": "fengyun-1c-debris", "lat": -54.60288593206984, "lon": 49.82287088868083, "alt_km": 874.2877849663173, "timestamp": "2025-12-03T22:42:32.912584+00:00", "meta": {"OBJECT_NAME": "FENGYUN 1C DEB", "OBJECT_ID": "1999-025AMX", "EPOCH": "2025-12-03T10:23:35.058624", "MEAN_MOTION": 13.35969634, "ECCENTRICITY": 0.0379575, "INCLINATION": 98.6405, "RA_OF_ASC_NODE": 37.0316, "ARG_OF_PERICENTER": 279.3277, "MEAN_ANOMALY": 76.513, "EPHEMERIS_TYPE": 0, "CLASSIFICATION_TYPE": "U", "NORAD_CAT_ID": 30616, "ELEMENT_SET_NO": 999, "REV_AT_EPOCH": 91576, "BSTAR": 0.002126, "MEAN_MOTION_DOT": 1.603e-05, "MEAN_MOTION_DDOT": 0}, "tle": {"line1": "1 30616U 99025AMX 25337.43304466  .00001603  00000+0  21260-2 0  9993", "line2": "2 30616  98.6405  37.0316 0379575 279.3277  76.5130 13.35969634915762"}}, "geometry": {"type": "Point", "coordinates": [49.82287088868083, -54.60288593206984]}}, {"type": "Feature", "properties": {"norad_id": 30619, "name": "FENGYUN 1C DEB", "group": "fengyun-1c-debris", "lat": 2.518770989622419, "lon": -178.50209195165425, "alt_km": 760.8939351871431, "timestamp": "2025-12-03T22:42:32.912594+00:00", "meta": {"OBJECT_NAME": "FENGYUN 1C DEB", "OBJECT_ID": "1999-025ANA", "EPOCH": "2025-12-03T00:14:54.062016", "MEAN_MOTION": 14.41055461, "ECCENTRICITY": 0.02162305, "INCLINATION": 98.2966, "RA_OF_ASC_NODE": 0.2211, "ARG_OF_PERICENTER": 87.7085, "MEAN_ANOMALY": 274.8844, "EPHEMERIS_TYPE": 0, "CLASSIFICATION_TYPE": "U", "NORAD_CAT_ID": 30619, "ELEMENT_SET_NO": 999, "REV_AT_EPOCH": 98809, "BSTAR": 0.00037075726, "MEAN_MOTION_DOT": 1.527e-05, "MEAN_MOTION_DDOT": 0}, "tle": {"line1": "1 30619U 99025ANA 25337.01034794  .00001527  00000+0  37076-3 0  9992", "line2": "2 30619  98.2966   0.2211 0216230  87.7085 274.8844 14.41055461988098"}}, "geometry": {"type": "Point", "coordinates": [-178.50209195165425, 2.518770989622419]}}, {"type": "Feature", "properties": {"norad_id": 30621, "name": "FENGYUN 1C DEB", "group": "fengyun-1c-debris", "lat": -73.51384033635678, "lon": 70.60271705434431, "alt_km": 860.8360477895358, "timestamp": "2025-12-03T22:42:32.912603+00:00", "meta": {"OBJECT_NAME": "FENGYUN 1C DEB", "OBJECT_ID": "1999-025ANC", "EPOCH": "2025-11-27T20:21:54.624960", "MEAN_MOTION": 14.03618645, "ECCENTRICITY": 0.0139383, "INCLINATION": 98.6958, "RA_OF_ASC_NODE": 275.9086, "ARG_OF_PERICENTER": 347.9886, "MEAN_ANOMALY": 74.2301, "EPHEMERIS_TYPE": 0, "CLASSIFICATION_TYPE": "U", "NORAD_CAT_ID": 30621, "ELEMENT_SET_NO": 999, "REV_AT_EPOCH": 95381, "BSTAR": 0.0029279, "MEAN_MOTION_DOT": 4.971e-05, "MEAN_MOTION_DDOT": 0}, "tle": {"line1": "1 30621U 99025ANC 25331.84854890  .00004971  00000+0  29279-2 0  9998", "line2": "2 30621  98.6958 275.9086 0139383 347.9886  74.2301 14.03618645953819"}}, "geometry": {"type": "Point", "coordinates": [70.60271705434431, -73.51384033635678]}}, {"type": "Feature", "properties": {"norad_id": 30622, "name": "FENGYUN 1C DEB", "group": "fengyun-1c-debris", "lat": -1.592124233624519, "lon": -12.519396860061173, "alt_km": 751.759326544663, "timestamp": "2025-12-03T22:42:32.912612+00:00", "meta": {"OBJECT_NAME": "FENGYUN 1C DEB", "OBJECT_ID": "1999-025AND", "EPOCH": "2025-12-02T19:01:26.960160", "MEAN_MOTION": 14.30925232, "ECCENTRICITY": 0.0072686, "INCLINATION": 101.0022, "RA_OF_ASC_NODE": 345.7141, "ARG_OF_PERICENTER": 41.9931, "MEAN_ANOMALY": 137.8391, "EPHEMERIS_TYPE": 0, "CLASSIFICATION_TYPE": "U", "NORAD_CAT_ID": 30622, "ELEMENT_SET_NO": 999, "REV_AT_EPOCH": 68655, "BSTAR": 0.0042645251, "MEAN_MOTION_DOT": 0.0001149, "MEAN_MOTION_DDOT": 0}, "tle": {"line1": "1 30622U 99025AND 25336.79267315  .00011490  00000+0  42645-2 0  9994", "line2": "2 30622 101.0022 345.7141 0072686  41.9931 137.8391 14.30925232686555"}}, "geometry": {"type": "Point", "coordinates": [-12.519396860061173, -1.592124233624519]}}, {"type": "Feature", "properties": {"norad_id": 30623, "name": "FENGYUN 1C DEB", "group": "fengyun-1c-debris", "lat": -2.940914702902057, "lon": -22.539565169314816, "alt_km": 963.2462338943296, "timestamp": "2025-12-03T22:42:32.912621+00:00", "meta": {"OBJECT_NAME": "FENGYUN 1C DEB", "OBJECT_ID": "1999-025ANE", "EPOCH": "2025-12-03T11:08:25.394784", "MEAN_MOTION": 13.29327424, "ECCENTRICITY": 0.0403844, "INCLINATION": 98.8232, "RA_OF_ASC_NODE": 157.5043, "ARG_OF_PERICENTER": 130.7025, "MEAN_ANOMALY": 262.9031, "EPHEMERIS_TYPE": 0, "CLASSIFICATION_TYPE": "U", "NORAD_CAT_ID": 30623, "ELEMENT_SET_NO": 999, "REV_AT_EPOCH": 91093, "BSTAR": 0.0007543, "MEAN_MOTION_DOT": 5.14e-06, "MEAN_MOTION_DDOT": 0}, "tle": {"line1": "1 30623U 99025ANE 25337.46418281  .00000514  00000+0  75430-3 0  9994", "line2": "2 30623  98.8232 157.5043 0403844 130.7025 262.9031 13.29327424910936"}}, "geometry": {"type": "Point", "coordinates": [-22.539565169314816, -2.940914702902057]}}, {"type": "Feature", "properties": {"norad_id": 30624, "name": "FENGYUN 1C DEB", "group": "fengyun-1c-debris", "lat": 27.681728257544076, "lon": 54.57992289389153, "alt_km": 687.7306349489018, "timestamp": "2025-12-03T22:42:32.912630+00:00", "meta": {"OBJECT_NAME": "FENGYUN 1C DEB", "OBJECT_ID": "1999-025ANF", "EPOCH": "2025-12-03T04:30:30.136320", "MEAN_MOTION": 14.61573732, "ECCENTRICITY": 0.0020863, "INCLINATION": 98.887, "RA_OF_ASC_NODE": 58.4739, "ARG_OF_PERICENTER": 296.6152, "MEAN_ANOMALY": 63.291, "EPHEMERIS_TYPE": 0, "CLASSIFICATION_TYPE": "U", "NORAD_CAT_ID": 30624, "ELEMENT_SET_NO": 999, "REV_AT_EPOCH": 97356, "BSTAR": 0.0061005, "MEAN_MOTION_DOT": 0.00030474, "MEAN_MOTION_DDOT": 0}, "tle": {"line1": "1 30624U 99025ANF 25337.18784880  .00030474  00000+0  61005-2 0  9995", "line2": "2 30624  98.8870  58.4739 0020863 296.6152  63.2910 14.61573732973563"}}, "geometry": {"type": "Point", "coordinates": [54.57992289389153, 27.681728257544076]}}, {"type": "Feature", "properties": {"norad_id": 30625, "name": "FENGYUN 1C DEB", "group": "fengyun-1c-debris", "lat": -79.49526961466646, "lon": -8.520952556383923, "alt_km": 739.9242206240251, "timestamp": "2025-12-03T22:42:32.912639+00:00", "meta": {"OBJECT_NAME": "FENGYUN 1C DEB", "OBJECT_ID": "1999-025ANG", "EPOCH": "2025-12-03T03:06:00.878976", "MEAN_MOTION": 14.41036303, "ECCENTRICITY": 0.00515169, "INCLINATION": 98.9273, "RA_OF_ASC_NODE": 292.6629, "ARG_OF_PERICENTER": 330.7492, "MEAN_ANOMALY": 29.0813, "EPHEMERIS_TYPE": 0, "CLASSIFICATION_TYPE": "U", "NORAD_CAT_ID": 30625, "ELEMENT_SET_NO": 999, "REV_AT_EPOCH": 96554, "BSTAR": 0.0064541113, "MEAN_MOTION_DOT": 0.00021107, "MEAN_MOTION_DDOT": 0}, "tle": {"line1": "1 30625U 99025ANG 25337.12917684  .00021107  00000+0  64541-2 0  9991", "line2": "2 30625  98.9273 292.6629 0051516 330.7492  29.0813 14.41036303965545"}}, "geometry": {"type": "Point", "coordinates": [-8.520952556383923, -79.49526961466646]}}]}